      2.10          N: GNSS NAV DATA                        RINEX VERSION / TYPE
fic2rin                                 05/20/2020 00:17:36 PGM / RUN BY / DATE
                                                            END OF HEADER
 2 20  5 19 10  0  0.0-4.583192057908e-04-6.139089236967e-12 0.000000000000e+00
    8.500000000000e+01 1.671875000000e+01 4.071955327570e-09 2.721163217999e+00
    9.145587682724e-07 1.969323446974e-02 1.011602580547e-05 5.153701557159e+03
    2.088000000000e+05 1.844018697739e-07 3.123719547046e+00-3.352761268616e-08
    9.594183575913e-01 1.777500000000e+02-1.629129474227e+00-7.468882537509e-09
    3.664438352852e-10 1.000000000000e+00 2.106000000000e+03 0.000000000000e+00
    2.400000000000e+00 0.000000000000e+00-1.769512891769e-08 8.500000000000e+01
    2.016000000000e+05 4.000000000000e+00
 1 20  5 19 10  0  0.0-3.822231665254e-04-5.798028723802e-12 0.000000000000e+00
    8.100000000000e+01 1.300000000000e+01 3.735155584223e-09 2.479359933213e+00
    6.631016731262e-07 9.869624860585e-03 1.024082303047e-05 5.153630508423e+03
    2.088000000000e+05-5.774199962616e-08-3.083381073187e+00-1.993030309677e-07
    9.804259606880e-01 1.924375000000e+02 7.769730206850e-01-7.565672283476e-09
    4.775198906202e-10 1.000000000000e+00 2.106000000000e+03 0.000000000000e+00
    2.400000000000e+00 0.000000000000e+00 5.122274160385e-09 8.100000000000e+01
    2.016000000000e+05 4.000000000000e+00
 5 20  5 19 10  0  0.0-1.295749098063e-05-6.821210263297e-13 0.000000000000e+00
    7.700000000000e+01-3.062500000000e+00 5.071996983319e-09-8.774031280250e-01
    8.940696716309e-08 5.858752643690e-03 4.308298230171e-06 5.153653602600e+03
    2.088000000000e+05 6.146728992462e-08-2.074896814798e+00 6.519258022308e-08
    9.522313994828e-01 2.883125000000e+02 7.918996873320e-01-8.445351782801e-09
    2.025084352892e-10 1.000000000000e+00 2.106000000000e+03 0.000000000000e+00
    2.400000000000e+00 0.000000000000e+00-1.117587089539e-08 7.700000000000e+01
    2.016000000000e+05 4.000000000000e+00
 6 20  5 19 10  0  0.0-2.741902135313e-04-6.707523425575e-12 0.000000000000e+00
    4.000000000000e+01 2.059375000000e+01 3.795158083568e-09 2.614392238536e+00
    1.186504960060e-06 1.923447591253e-03 9.911134839058e-06 5.153542432785e+03
    2.088000000000e+05-7.636845111847e-08-3.091618116818e+00 1.676380634308e-08
    9.799906577102e-01 1.989062500000e+02-1.054436013287e+00-7.599602268224e-09
    4.178745490094e-10 1.000000000000e+00 2.106000000000e+03 0.000000000000e+00
    2.400000000000e+00 0.000000000000e+00 4.190951585770e-09 4.000000000000e+01
    2.016000000000e+05 4.000000000000e+00
 3 20  5 19 10  0  0.0-1.805657520890e-04-1.227817847393e-11 0.000000000000e+00
    1.010000000000e+02 1.437500000000e+00 4.772341644328e-09 1.446850829522e+00
   -6.891787052155e-08 2.817069063894e-03 4.276633262634e-06 5.153548936844e+03
    2.088000000000e+05-1.303851604462e-08-2.043110045083e+00 7.636845111847e-08
    9.653077410106e-01 2.962187500000e+02 6.988130322992e-01-8.305703108730e-09
    2.028655930234e-10 1.000000000000e+00 2.106000000000e+03 0.000000000000e+00
    2.400000000000e+00 0.000000000000e+00 1.862645149231e-09 1.010000000000e+02
    2.016000000000e+05 4.000000000000e+00
 7 20  5 19 10  0  0.0-2.845521084964e-04-8.753886504564e-12 0.000000000000e+00
    9.200000000000e+01 7.893750000000e+01 4.695909889210e-09 1.721230685698e+00
    4.146248102188e-06 1.382224692497e-02 9.777024388313e-06 5.153676387787e+03
    2.088000000000e+05-3.892928361893e-07 6.215483219824e-02 6.146728992462e-08
    9.536890627603e-01 1.926562500000e+02-2.398299107013e+00-8.175697693483e-09
    1.446488823494e-10 1.000000000000e+00 2.106000000000e+03 0.000000000000e+00
    2.400000000000e+00 0.000000000000e+00-1.117587089539e-08 9.200000000000e+01
    2.016000000000e+05 4.000000000000e+00
27 20  5 19 10  0  0.0-2.977098338306e-04-1.011812855722e-11 0.000000000000e+00
    2.400000000000e+01-8.956250000000e+01 3.876232889230e-09-1.690903962354e+00
   -4.602596163750e-06 8.284594048746e-03 7.996335625648e-06 5.153666641235e+03
    2.088000000000e+05 3.725290298462e-08 2.144546597637e+00-1.974403858185e-07
    9.780379136963e-01 2.349062500000e+02 5.595532258093e-01-7.733179260814e-09
   -3.271564845236e-10 1.000000000000e+00 2.106000000000e+03 0.000000000000e+00
    2.400000000000e+00 0.000000000000e+00 1.862645149231e-09 2.400000000000e+01
    2.016000000000e+05 4.000000000000e+00
16 20  5 19 10  0  0.0-1.599802635610e-04-4.547473508865e-12 0.000000000000e+00
    6.000000000000e+01 1.143750000000e+01 4.469471885730e-09-8.114268348875e-01
    6.239861249924e-07 1.150113029871e-02 2.536922693253e-06 5.153758749008e+03
    2.088000000000e+05 2.160668373108e-07 1.186986861373e+00 1.825392246246e-07
    9.784445595719e-01 3.389062500000e+02 6.330024921689e-01-8.336418673871e-09
   -1.696499237431e-10 1.000000000000e+00 2.106000000000e+03 0.000000000000e+00
    2.400000000000e+00 0.000000000000e+00-1.071020960808e-08 6.000000000000e+01
    2.016000000000e+05 4.000000000000e+00
 9 20  5 19 10  0  0.0-2.201609313488e-04-7.275957614183e-12 0.000000000000e+00
    5.400000000000e+01-3.665625000000e+01 4.819843622976e-09-1.330489238549e+00
   -1.851469278336e-06 1.528121531010e-03 9.326264262199e-06 5.153733793259e+03
    2.088000000000e+05-4.470348358154e-08-1.011656223200e+00 2.607703208923e-08
    9.525122139227e-01 2.007187500000e+02 1.812788866367e+00-8.103908988909e-09
   -3.292994309288e-10 1.000000000000e+00 2.106000000000e+03 0.000000000000e+00
    2.400000000000e+00 0.000000000000e+00 1.396983861923e-09 5.400000000000e+01
    2.016000000000e+05 4.000000000000e+00
15 20  5 19 10  0  0.0-2.301898784935e-04 2.614797267597e-12 0.000000000000e+00
    5.200000000000e+01-4.718750000000e+01 5.338793810763e-09-2.516391770412e+00
   -2.775341272354e-06 1.226840121672e-02 8.940696716309e-06 5.153686428070e+03
    2.088000000000e+05 2.216547727585e-07-1.100952805663e+00-1.434236764908e-07
    9.279848928328e-01 1.861562500000e+02 8.782553085274e-01-8.254986710474e-09
   -2.803688213439e-10 1.000000000000e+00 2.106000000000e+03 0.000000000000e+00
    2.400000000000e+00 0.000000000000e+00-1.071020960808e-08 5.200000000000e+01
    2.016000000000e+05 4.000000000000e+00
14 20  5 19 10  0  0.0-1.195911318064e-05 2.614797267597e-12 0.000000000000e+00
    2.800000000000e+01-3.587500000000e+01 4.512330813833e-09-1.900273714028e+00
   -1.745298504829e-06 1.142733194865e-02 9.926036000252e-06 5.153648334503e+03
    2.088000000000e+05 1.825392246246e-07-9.158146403386e-01 3.166496753693e-08
    9.603392981693e-01 1.831562500000e+02-1.917675980388e+00-7.803539334450e-09
   -2.742971398626e-10 1.000000000000e+00 2.106000000000e+03 0.000000000000e+00
    2.400000000000e+00 0.000000000000e+00-9.778887033463e-09 2.800000000000e+01
    2.016000000000e+05 4.000000000000e+00
10 20  5 19 10  0  0.0-3.455202095211e-04-1.148237060988e-11 0.000000000000e+00
    1.040000000000e+02-3.125000000000e-02 4.818414992039e-09 3.660498462111e-01
    9.313225746155e-09 5.594048532657e-03 4.677101969719e-06 5.153658542633e+03
    2.088000000000e+05 1.862645149231e-08-2.046152960038e+00 1.359730958939e-07
    9.652604126849e-01 2.933437500000e+02-2.628936852424e+00-8.297488480843e-09
    1.975082270104e-10 1.000000000000e+00 2.106000000000e+03 0.000000000000e+00
    2.400000000000e+00 0.000000000000e+00 2.328306436539e-09 1.040000000000e+02
    2.016000000000e+05 4.000000000000e+00
22 20  5 19 10  0  0.0-7.817810401320e-04 1.364242052659e-12 0.000000000000e+00
    3.400000000000e+01 1.465625000000e+01 5.484871324049e-09-2.532154550332e+00
    8.661299943924e-07 7.202260196209e-03 3.801658749580e-06 5.153495208740e+03
    2.088000000000e+05 3.539025783539e-08-2.129279590413e+00 1.173466444016e-07
    9.303605927959e-01 2.845000000000e+02-1.164159372094e+00-8.534998374084e-09
    3.317995350682e-10 1.000000000000e+00 2.106000000000e+03 0.000000000000e+00
    2.400000000000e+00 0.000000000000e+00-1.816079020500e-08 3.400000000000e+01
    2.016000000000e+05 4.000000000000e+00
11 20  5 19 10  0  0.0-2.731038257480e-04 1.068656274583e-11 0.000000000000e+00
    8.400000000000e+01-4.925000000000e+01 5.122356223840e-09 1.963894839257e+00
   -2.432614564896e-06 1.595071225893e-02 9.993091225624e-06 5.153718603134e+03
    2.088000000000e+05 3.166496753693e-07 2.726028895234e+00 9.685754776001e-08
    9.129605149614e-01 1.580625000000e+02 1.983188862039e+00-8.071050477363e-09
    1.392915163365e-11 1.000000000000e+00 2.106000000000e+03 0.000000000000e+00
    2.400000000000e+00 0.000000000000e+00-1.257285475731e-08 8.400000000000e+01
    2.016000000000e+05 4.000000000000e+00
31 20  5 19 10  0  0.0-4.339497536421e-05-2.614797267597e-12 0.000000000000e+00
    8.300000000000e+01 8.515625000000e+01 4.599477300977e-09 1.355231939216e+00
    4.731118679047e-06 9.509503841400e-03 9.763985872269e-06 5.153582923889e+03
    2.088000000000e+05 8.940696716309e-08 7.767371441627e-02 9.685754776001e-08
    9.581213695323e-01 1.875312500000e+02 1.306587727481e-01-8.115695194138e-09
    5.857386840816e-11 1.000000000000e+00 2.106000000000e+03 0.000000000000e+00
    2.400000000000e+00 0.000000000000e+00-1.303851604462e-08 8.300000000000e+01
    2.016000000000e+05 4.000000000000e+00
30 20  5 19 10  0  0.0-2.233400009573e-04-8.185452315956e-12 0.000000000000e+00
    6.100000000000e+01 9.056250000000e+01 5.078782980268e-09 1.688375287973e+00
    4.876405000687e-06 4.612401593477e-03 9.113922715187e-06 5.153653799057e+03
    2.088000000000e+05 7.450580596924e-09 8.494185277483e-02 1.229345798492e-07
    9.390044154287e-01 1.949375000000e+02-2.875216736752e+00-8.337132989339e-09
    1.289339420448e-10 1.000000000000e+00 2.106000000000e+03 0.000000000000e+00
    2.400000000000e+00 0.000000000000e+00 3.725290298462e-09 6.100000000000e+01
    2.016000000000e+05 4.000000000000e+00
